#aV2022  2 11  0  0  0.00000000     288 DD+AD WGS84 FIT  NGA
## 2196 432000.00000000   300.00000000 59621 0.0000000000000
+   32     1  2  3  4  5  6  7  8  9 10 11 12 13 14 15 16 17
+         18 19 20 21 22 23 24 25 26 27 28 29 30 31 32  0  0
+          0  0  0  0  0  0  0  0  0  0  0  0  0  0  0  0  0
+          0  0  0  0  0  0  0  0  0  0  0  0  0  0  0  0  0
+          0  0  0  0  0  0  0  0  0  0  0  0  0  0  0  0  0
++         2  2  2  2  2  2  2  2  2  2  2  2  2  2  2  2  2
++         2  2  2  2  2  2  2  2  2  2  2  2  2  2  2  0  0
++         0  0  0  0  0  0  0  0  0  0  0  0  0  0  0  0  0
++         0  0  0  0  0  0  0  0  0  0  0  0  0  0  0  0  0
++         0  0  0  0  0  0  0  0  0  0  0  0  0  0  0  0  0
%c cc cc ccc ccc cccc cccc cccc cccc ccccc ccccc ccccc ccccc
%c cc cc ccc ccc cccc cccc cccc cccc ccccc ccccc ccccc ccccc
%f  0.0000000  0.000000000  0.00000000000  0.000000000000000
%f  0.0000000  0.000000000  0.00000000000  0.000000000000000
%i    0    0    0    0      0      0      0      0         0
%i    0    0    0    0      0      0      0      0         0
/*      NGA, ST. LOUIS,MO.                                  
/*   EPHEMERIS COMPUTED FROM 2 DAYS OF DATA                 
/*   EPOCHA v7 SMOOTHER                                     
/*   G2139 IERS2010 SATIGS SATAPC                           
*  2022  2 11  5 35  0.00000000
P  1   4671.335607  14105.587822 -22308.713642    434.427749                    
V  1 -27027.049547   5384.158438  -1946.705997     -0.095337                    
P  2  17164.021486 -15258.678562  14112.841144   -650.634668                    
V  2  16578.653003  -3019.421291 -24473.804985     -0.007312                    
P  3  11327.359220  22197.331976  -9444.829289   -116.151340                    
V  3  -9457.875082  -7359.723070 -28848.466556     -0.169212                    
P  4   1394.862775  23013.802213  13117.692240   -190.236511                    
V  4  -7841.826609  14900.515553 -25394.449990      0.021886                    
P  5   2518.359482 -17284.693361  19802.863565    -71.019266                    
V  5  18754.063486  17397.295539  12844.423786     -0.013237                    
P  6  26039.498403  -5437.624060     -8.236055    197.893160                    
V  6    305.377384   1931.042436 -32254.567971      0.117929                    
P  7  20394.988211   7450.259299  16002.033060    309.410860                    
V  7 -18709.080252   5623.883353  21258.673498      0.028519                    
P  8  -5543.981144  25605.942083  -3027.276169    -55.703066                    
V  8  -3943.675060   2833.233186  31767.452957     -0.015460                    
P  9  10239.396851  14410.159951  19742.241203   -354.657527                    
V  9  -8552.440788  23795.048513 -12917.759899      0.015594                    
P 10 -20611.503046  -7460.647093 -15063.429345   -317.249136                    
V 10 -11701.266963 -15354.842178  23111.698307     -0.103778                    
P 11  19364.542923 -12387.451325  13293.826796    -92.849628                    
V 11  17027.282124   -394.671280 -25176.996679      0.127887                    
P 12  -7433.348397 -22773.374265 -11877.216976   -169.260809                    
V 12  10518.219477  10323.484534 -26850.111318     -0.057008                    
P 13  13199.839393 -22729.896928   2998.899641    259.806333                    
V 13    691.550407   4780.244378  31734.919719      0.061840                    
P 14  20514.205978   8379.933118 -14697.458565    -82.446310                    
V 14  10226.405265  15742.320587  23189.935229     -0.046243                    
P 15   1985.048241 -26070.880497  -3957.327283    -84.724893                    
V 15   4748.543935  -3781.165625  30726.012089      0.028900                    
P 16  -7611.370773  13833.416905  21009.924658   -467.908283                    
V 16 -17123.299315 -21365.581049   8219.374154     -0.049482                    
P 17  15641.582681  -1287.996556 -21002.678743    573.549797                    
V 17  -9536.787241  25931.216821  -8472.998567      0.050073                    
P 18 -20293.895531  -7035.613640  15686.732581    242.661429                    
V 18  19184.859583  -5413.457555  22288.528697     -0.079937                    
P 19  17371.878956  -8981.104507 -18146.139297    117.389926                    
V 19  -7987.658817  21120.221257 -18540.414328      0.049838                    
P 20  11142.756704 -11032.894302  21424.232590    516.758225                    
V 20  20954.375427  17493.827200  -2137.070333     -0.001758                    
P 21  -5984.192768  16018.975763 -19470.376848    157.834076                    
V 21 -25780.748618   5961.600466  13021.960091      0.006395                    
P 22 -17000.004244  12721.725918 -15441.240015    211.835676                    
V 22   5851.072277 -19670.942510 -22263.810130      0.056423                    
P 23 -20526.767801 -15995.703534  -5572.560992      2.438906                    
V 23  -3080.004454  -6783.225974  30790.415699     -0.035586                    
P 24   -649.033847 -16210.458070 -21279.206477    275.070431                    
V 24  25618.279581  -6805.450386   4877.965316     -0.016976                    
P 25 -17312.295208 -20323.970248  -1252.144638    283.861606                    
V 25   2804.348923   -877.280316 -31451.231217      0.053779                    
P 26 -17006.087931   3763.870596  20048.619260    182.232911                    
V 26 -17354.679529 -18902.557697 -10819.612979      0.032314                    
P 27 -12391.781009  21988.876348   7393.442136    113.894227                    
V 27    499.734278 -10074.119533  30395.353232      0.168700                    
P 28  17399.697570   1026.655514 -19452.372572    403.012348                    
V 28  14385.307371  21564.557817  13863.980977     -0.081391                    
P 29  -6721.705068 -17168.614733  19052.804672   -478.727986                    
V 29  10213.513340 -22023.651245 -16257.523095     -0.047740                    
P 30  25350.579879   1326.762386   8293.175663   -512.645291                    
V 30  -9626.454945   5033.651900  28618.569613     -0.023516                    
P 31 -25915.733262   6480.813942   2230.270648   -164.174363                    
V 31  -3376.385780  -2010.862648 -31151.567751     -0.017618                    
P 32 -16468.211987   6004.611002 -19772.267698    -65.637135                    
V 32   6428.350447 -24658.387014 -12945.631890     -0.066747                    
EOF
